NORAD_CAT_ID,OBJECT_NAME,OBJECT_TYPE,EPOCH,MEAN_MOTION,ECCENTRICITY,INCLINATION,RA_OF_ASC_NODE,ARG_OF_PERICENTER,MEAN_ANOMALY,BSTAR,MEAN_MOTION_DOT,MEAN_MOTION_DDOT,TLE_LINE0,TLE_LINE1,TLE_LINE2,SEMIMAJOR_AXIS,PERIOD,APOGEE,PERIGEE,DECAYED
53641.0,STARLINK-4588,PAYLOAD,2024-05-27 14:13:30,15.08846747,0.0001089,53.2168,266.874,83.1607,276.9509,0.00028835,4.305e-05,0.0,0 STARLINK-4588,1 53641U 22104BF  24148.59271017  .00004305  00000-0  28835-3 0  9990,2 53641  53.2168 266.8740 0001089  83.1607 276.9509 15.08846747 97938,6917.86,95.437,540.478,538.971,0.0
53641.0,STARLINK-4588,PAYLOAD,2024-05-28 12:28:53,15.08845918,0.0001194,53.216,262.7112,78.4792,281.6334,0.00015666,2.207e-05,0.0,0 STARLINK-4588,1 53641U 22104BF  24149.52006919  .00002207  00000-0  15666-3 0  9998,2 53641  53.2160 262.7112 0001194  78.4792 281.6334 15.08845918 97058,6917.862,95.437,540.553,538.901,0.0
53641.0,STARLINK-4588,PAYLOAD,2024-05-28 14:04:17,15.08846324,0.0001177,53.2165,262.4132,81.5415,278.5711,0.00011895,1.606e-05,0.0,0 STARLINK-4588,1 53641U 22104BF  24149.58630877  .00001606  00000-0  11895-3 0  9992,2 53641  53.2165 262.4132 0001177  81.5415 278.5711 15.08846324 98080,6917.861,95.437,540.54,538.912,0.0
53641.0,STARLINK-4588,PAYLOAD,2024-05-29 12:19:41,15.08840488,0.0001131,53.2172,258.2517,73.8963,286.2153,6.0387e-05,6.73e-06,0.0,0 STARLINK-4588,1 53641U 22104BF  24150.51367198  .00000673  00000-0  60387-4 0  9994,2 53641  53.2172 258.2517 0001131  73.8963 286.2153 15.08840488 97204,6917.879,95.438,540.526,538.961,0.0
53641.0,STARLINK-4588,PAYLOAD,2024-05-29 13:55:04,15.08842272,0.0001241,53.2173,257.9531,83.8044,276.3089,5.4073e-05,5.73e-06,0.0,0 STARLINK-4588,1 53641U 22104BF  24150.57991072  .00000573  00000-0  54073-4 0  9998,2 53641  53.2173 257.9531 0001241  83.8044 276.3089 15.08842272 98235,6917.873,95.437,540.597,538.88,0.0
53641.0,STARLINK-4588,PAYLOAD,2024-05-30 13:45:50,15.08850895,0.0001338,53.2179,253.4947,90.6103,269.5043,0.00024745,3.654e-05,0.0,0 STARLINK-4588,1 53641U 22104BF  24151.57350622  .00003654  00000-0  24745-3 0  9994,2 53641  53.2179 253.4947 0001338  90.6103 269.5043 15.08850895 98382,6917.847,95.437,540.638,538.786,0.0
53641.0,STARLINK-4588,PAYLOAD,2024-05-31 05:39:42,15.08847001,0.0001481,53.2186,250.524,100.9524,259.1635,0.00019827,2.869e-05,0.0,0 STARLINK-4588,1 53641U 22104BF  24152.23590585  .00002869  00000-0  19827-3 0  9994,2 53641  53.2186 250.5240 0001481 100.9524 259.1635 15.08847001 97460,6917.859,95.437,540.749,538.699,0.0
53641.0,STARLINK-4588,PAYLOAD,2024-05-31 12:01:14,15.08843067,0.0001417,53.218,249.3307,100.2841,259.8311,0.00010343,1.359e-05,0.0,0 STARLINK-4588,1 53641U 22104BF  24152.50086774  .00001359  00000-0  10343-3 0  9991,2 53641  53.2180 249.3307 0001417 100.2841 259.8311 15.08843067 98522,6917.871,95.437,540.716,538.756,0.0
53641.0,STARLINK-4588,PAYLOAD,2024-06-01 05:30:30,15.08833538,0.0001396,53.2174,246.0624,94.973,265.1422,-0.00012186,-2.226e-05,0.0,0 STARLINK-4588,1 53641U 22104BF  24153.22951444 -.00002226  00000-0 -12186-3 0  9999,2 53641  53.2174 246.0624 0001396  94.9730 265.1422 15.08833538 97617,6917.9,95.438,540.731,538.799,0.0
53641.0,STARLINK-4588,PAYLOAD,2024-06-01 13:27:26,15.08832904,0.0001449,53.2175,244.5721,81.5249,278.5908,-7.0233e-05,-1.405e-05,0.0,0 STARLINK-4588,1 53641U 22104BF  24153.56072365 -.00001405  00000-0 -70233-4 0  9998,2 53641  53.2175 244.5721 0001449  81.5249 278.5908 15.08832904 97663,6917.902,95.438,540.769,538.765,0.0
53641.0,STARLINK-4588,PAYLOAD,2024-06-01 22:59:45,15.08839905,0.0001493,53.2178,242.788,85.9299,274.1864,-4.6714e-05,-1.031e-05,0.0,0 STARLINK-4588,1 53641U 22104BF  24153.95815975 -.00001031  00000-0 -46714-4 0  9995,2 53641  53.2178 242.7880 0001493  85.9299 274.1864 15.08839905 97722,6917.881,95.438,540.779,538.713,0.0
53641.0,STARLINK-4588,PAYLOAD,2024-06-02 14:53:35,15.08846739,0.0001518,53.218,239.8154,91.073,269.0436,0.00029166,4.358e-05,0.0,0 STARLINK-4588,1 53641U 22104BF  24154.62055490  .00004358  00000-0  29166-3 0  9992,2 53641  53.2180 239.8154 0001518  91.0730 269.0436 15.08846739 98847,6917.86,95.437,540.775,538.675,0.0
53641.0,STARLINK-4588,PAYLOAD,2024-06-03 05:12:04,15.08834397,0.0001432,53.219,237.1365,86.3837,273.7318,0.00032481,4.884e-05,0.0,0 STARLINK-4588,1 53641U 22104BF  24155.21672289  .00004884  00000-0  32481-3 0  9997,2 53641  53.2190 237.1365 0001432  86.3837 273.7318 15.08834397 97918,6917.898,95.438,540.753,538.772,0.0
53641.0,STARLINK-4588,PAYLOAD,2024-06-03 11:33:37,15.08841679,0.0001176,53.2155,235.9491,87.2182,272.8944,0.00028915,4.317e-05,0.0,0 STARLINK-4588,1 53641U 22104BF  24155.48167998  .00004317  00000-0  28915-3 0  9990,2 53641  53.2155 235.9491 0001176  87.2182 272.8944 15.08841679 98976,6917.875,95.437,540.554,538.927,0.0
53641.0,STARLINK-4588,PAYLOAD,2024-06-03 22:41:18,15.08850755,0.0001074,53.2152,233.8664,89.0476,271.0639,0.00027509,4.094e-05,0.0,0 STARLINK-4588,1 53641U 22104BF  24155.94535381  .00004094  00000-0  27509-3 0  9996,2 53641  53.2152 233.8664 0001074  89.0476 271.0639 15.08850755 98028,6917.848,95.437,540.455,538.97,0.0
53641.0,STARLINK-4588,PAYLOAD,2024-06-04 11:24:23,15.08851813,0.0001112,53.2151,231.4875,89.139,270.973,0.00024649,3.638e-05,0.0,0 STARLINK-4588,1 53641U 22104BF  24156.47527138  .00003638  00000-0  24649-3 0  9991,2 53641  53.2151 231.4875 0001112  89.1390 270.9730 15.08851813 99122,6917.844,95.437,540.479,538.94,0.0
53641.0,STARLINK-4588,PAYLOAD,2024-06-04 22:32:05,15.08851145,0.0001263,53.2146,229.4051,97.8398,262.2737,0.00020107,2.915e-05,0.0,0 STARLINK-4588,1 53641U 22104BF  24156.93894910  .00002915  00000-0  20107-3 0  9999,2 53641  53.2146 229.4051 0001263  97.8398 262.2737 15.08851145 99196,6917.846,95.437,540.585,538.838,0.0
53641.0,STARLINK-4588,PAYLOAD,2024-06-05 04:53:38,15.08848183,0.0002007,53.2148,228.2163,93.918,266.2042,0.00019253,2.778e-05,0.0,0 STARLINK-4588,1 53641U 22104BF  24157.20391265  .00002778  00000-0  19253-3 0  9992,2 53641  53.2148 228.2163 0002007  93.9180 266.2042 15.08848183 98215,6917.855,95.437,541.109,538.332,0.0
53641.0,STARLINK-4588,PAYLOAD,2024-06-05 11:15:10,15.08839699,0.000141,53.2153,227.0269,99.4332,260.682,5.3488e-05,5.63e-06,0.0,0 STARLINK-4588,1 53641U 22104BF  24157.46887535  .00000563  00000-0  53488-4 0  9999,2 53641  53.2153 227.0269 0001410  99.4332 260.6820 15.08839699 98250,6917.881,95.438,540.722,538.771,0.0
53641.0,STARLINK-4588,PAYLOAD,2024-06-05 14:25:57,15.08844196,0.0001775,53.2169,226.4316,108.4072,251.7113,-6.8613e-06,-3.97e-06,0.0,0 STARLINK-4588,1 53641U 22104BF  24157.60135426 -.00000397  00000-0 -68613-5 0  9994,2 53641  53.2169 226.4316 0001775 108.4072 251.7113 15.08844196 99298,6917.868,95.437,540.96,538.505,0.0
53641.0,STARLINK-4588,PAYLOAD,2024-06-06 11:05:58,15.08838665,0.0001267,53.215,222.5655,89.2432,270.8705,3.9278e-05,3.37e-06,0.0,0 STARLINK-4588,1 53641U 22104BF  24158.46247867  .00000337  00000-0  39278-4 0  9998,2 53641  53.2150 222.5655 0001267  89.2432 270.8705 15.08838665 99421,6917.884,95.438,540.626,538.873,0.0
53641.0,STARLINK-4588,PAYLOAD,2024-06-07 09:21:22,15.08843473,0.0001357,53.2157,218.4028,91.2511,268.8636,0.00028794,4.298e-05,0.0,0 STARLINK-4588,1 53641U 22104BF  24159.38984026  .00004298  00000-0  28794-3 0  9995,2 53641  53.2157 218.4028 0001357  91.2511 268.8636 15.08843473 99565,6917.87,95.437,540.674,538.796,0.0
53641.0,STARLINK-4588,PAYLOAD,2024-06-07 20:29:03,15.08848879,0.0001254,53.2148,216.3226,86.5713,273.5422,0.00031106,4.667e-05,0.0,0 STARLINK-4588,1 53641U 22104BF  24159.85351783  .00004667  00000-0  31106-3 0  9996,2 53641  53.2148 216.3226 0001254  86.5713 273.5422 15.08848879 98615,6917.853,95.437,540.586,538.851,0.0
53641.0,STARLINK-4588,PAYLOAD,2024-06-08 10:47:31,15.08855275,0.0001381,53.2158,213.6478,89.3972,270.7178,0.00031249,4.691e-05,0.0,0 STARLINK-4588,1 53641U 22104BF  24160.44967282  .00004691  00000-0  31249-3 0  9995,2 53641  53.2158 213.6478 0001381  89.3972 270.7178 15.08855275 99722,6917.834,95.437,540.654,538.743,0.0
53641.0,STARLINK-4588,PAYLOAD,2024-06-08 20:19:50,15.08851599,0.0001125,53.2139,211.8615,72.1965,287.9149,0.00017963,2.573e-05,0.0,0 STARLINK-4588,1 53641U 22104BF  24160.84711106  .00002573  00000-0  17963-3 0  9995,2 53641  53.2139 211.8615 0001125  72.1965 287.9149 15.08851599 99781,6917.845,95.437,540.488,538.932,0.0
53641.0,STARLINK-4588,PAYLOAD,2024-06-09 12:13:42,15.08834723,0.0001444,53.216,208.8902,83.7309,276.3848,-6.5456e-05,-1.329e-05,0.0,0 STARLINK-4588,1 53641U 22104BF  24161.50952186 -.00001329  00000-0 -65456-4 0  9995,2 53641  53.2160 208.8902 0001444  83.7309 276.3848 15.08834723 98860,6917.897,95.438,540.76,538.763,0.0
53641.0,STARLINK-4588,PAYLOAD,2024-06-09 20:10:38,15.08837152,0.0001402,53.2156,207.404,85.6266,274.4886,-2.5056e-06,-3.28e-06,0.0,0 STARLINK-4588,1 53641U 22104BF  24161.84072191 -.00000328  00000-0 -25056-5 0  9992,2 53641  53.2156 207.4040 0001402  85.6266 274.4886 15.08837152 99939,6917.889,95.438,540.724,538.784,0.0
53641.0,STARLINK-4588,PAYLOAD,2024-06-10 12:04:29,15.08842214,0.0001376,53.2152,204.428,82.1334,277.9815,0.00020713,3.01e-05,0.0,0 STARLINK-4588,1 53641U 22104BF  24162.50312144  .00003010  00000-0  20713-3 0  9993,2 53641  53.2152 204.4280 0001376  82.1334 277.9815 15.08842214100035,6917.874,95.437,540.691,538.787,0.0
53641.0,STARLINK-4588,PAYLOAD,2024-06-10 20:01:25,15.08842506,0.0001392,53.2151,202.9417,80.3356,279.7793,0.00041055,6.252e-05,0.0,0 STARLINK-4588,1 53641U 22104BF  24162.83432392  .00006252  00000-0  41055-3 0  9990,2 53641  53.2151 202.9417 0001392  80.3356 279.7793 15.08842506 99060,6917.873,95.437,540.701,538.775,0.0
53641.0,STARLINK-4588,PAYLOAD,2024-06-11 08:44:30,15.08848517,0.0001378,53.2146,200.5631,80.6262,279.4886,0.00043763,6.685e-05,0.0,0 STARLINK-4588,1 53641U 22104BF  24163.36424273  .00006685  00000-0  43763-3 0  9996,2 53641  53.2146 200.5631 0001378  80.6262 279.4886 15.08848517100161,6917.854,95.437,540.673,538.766,0.0
